IRIDIUM 5 [-]           
1 24795U 97020D   23261.79119976  .00006117  00000+0  62559-3 0  9992
2 24795  86.4004  14.9287 0127242 247.2921 111.4812 14.84473604390615
IRIDIUM 4 [-]           
1 24796U 97020E   23261.91465188  .00000622  00000+0  20828-3 0  9994
2 24796  86.3901  81.1199 0002184  92.3181 267.8266 14.35797296380994
IRIDIUM 914 [-]         
1 24836U 97030A   23261.90490642  .00000631  00000+0  19591-3 0  9997
2 24836  86.3874  91.5939 0003213 122.5497 237.6012 14.39590356515407
IRIDIUM 911 [-]         
1 24842U 97030G   23261.84800727  .00000731  00000+0  19943-3 0  9998
2 24842  86.4425 112.2571 0016341  64.0636 296.2249 14.45998527382933
IRIDIUM 17 [-]          
1 24870U 97034B   23261.90516472  .00000603  00000+0  19847-3 0  9992
2 24870  86.3989 142.5425 0001276  29.2067 330.9201 14.36592239372050
IRIDIUM 920 [-]         
1 24871U 97034C   23261.85252745  .00000543  00000+0  16499-3 0  9990
2 24871  86.3960 123.2936 0012745  31.5507 328.6454 14.40305749374803
